start=new Date('2021-09-01T00:00:00.000Z').valueOf();
sats=[{"ECCENTRICITY":"0.00020220","APOAPSIS":"548.676","GP_ID":"183842160","INCLINATION":"53.0569","REF_FRAME":"TEME","ARG_OF_PERICENTER":"78.9363","MEAN_ELEMENT_THEORY":"SGP4","COUNTRY_CODE":"US","FILE":"3106454","MEAN_ANOMALY":"281.1854","MEAN_MOTION_DOT":"-0.00000538","RA_OF_ASC_NODE":"92.6136","EPHEMERIS_TYPE":"0","PERIAPSIS":"545.876","EPOCH":"2021-08-31T19:58:21.476928","TLE_LINE1":"1 46713U 20073AV  21243.83219302 -.00000538  00000-0 -17228-4 0  9995","LAUNCH_DATE":"2020-10-18","ELEMENT_SET_NO":"999","TLE_LINE2":"2 46713  53.0569  92.6136 0002022  78.9363 281.1854 15.06379576 48303","OBJECT_NAME":"STARLINK-1815","DECAY_DATE":null,"OBJECT_TYPE":"PAYLOAD","OBJECT_ID":"2020-073AV","CENTER_NAME":"EARTH","CLASSIFICATION_TYPE":"U","MEAN_MOTION":"15.06379576","SEMIMAJOR_AXIS":"6925.411","MEAN_MOTION_DDOT":"0.0000000000000","TIME_SYSTEM":"UTC","BSTAR":"-0.00001722800000","SITE":"AFETR","REV_AT_EPOCH":"4830","PERIOD":"95.593","RCS_SIZE":"LARGE","NORAD_CAT_ID":"46713"},{"OBJECT_ID":"2020-073AW","CENTER_NAME":"EARTH","CLASSIFICATION_TYPE":"U","MEAN_MOTION_DDOT":"0.0000000000000","TIME_SYSTEM":"UTC","MEAN_MOTION":"15.06389955","SEMIMAJOR_AXIS":"6925.379","BSTAR":"0.00000587460000","REV_AT_EPOCH":"4831","SITE":"AFETR","NORAD_CAT_ID":"46714","RCS_SIZE":"LARGE","PERIOD":"95.593","GP_ID":"183842410","ECCENTRICITY":"0.00019620","APOAPSIS":"548.603","ARG_OF_PERICENTER":"91.1622","MEAN_ELEMENT_THEORY":"SGP4","INCLINATION":"53.0553","REF_FRAME":"TEME","MEAN_ANOMALY":"268.9591","MEAN_MOTION_DOT":"-0.00000194","COUNTRY_CODE":"US","FILE":"3106454","EPHEMERIS_TYPE":"0","RA_OF_ASC_NODE":"92.3522","TLE_LINE1":"1 46714U 20073AW  21243.88747707 -.00000194  00000-0  58746-5 0  9994","LAUNCH_DATE":"2020-10-18","ELEMENT_SET_NO":"999","PERIAPSIS":"545.886","EPOCH":"2021-08-31T21:17:58.018848","TLE_LINE2":"2 46714  53.0553  92.3522 0001962  91.1622 268.9591 15.06389955 48314","OBJECT_NAME":"STARLINK-1816","DECAY_DATE":null,"OBJECT_TYPE":"PAYLOAD"},{"CLASSIFICATION_TYPE":"U","CENTER_NAME":"EARTH","OBJECT_ID":"2020-073AX","SITE":"AFETR","REV_AT_EPOCH":"4831","PERIOD":"95.594","RCS_SIZE":"LARGE","NORAD_CAT_ID":"46715","SEMIMAJOR_AXIS":"6925.443","MEAN_MOTION":"15.06369024","TIME_SYSTEM":"UTC","MEAN_MOTION_DDOT":"0.0000000000000","BSTAR":"0.00022110000000","FILE":"3106454","COUNTRY_CODE":"US","MEAN_MOTION_DOT":"0.00003010","MEAN_ANOMALY":"272.6678","RA_OF_ASC_NODE":"92.3798","EPHEMERIS_TYPE":"0","APOAPSIS":"548.754","ECCENTRICITY":"0.00020870","GP_ID":"183841658","REF_FRAME":"TEME","INCLINATION":"53.0544","ARG_OF_PERICENTER":"87.4550","MEAN_ELEMENT_THEORY":"SGP4","OBJECT_NAME":"STARLINK-1817","OBJECT_TYPE":"PAYLOAD","DECAY_DATE":null,"EPOCH":"2021-08-31T21:12:39.712608","PERIAPSIS":"545.863","ELEMENT_SET_NO":"999","LAUNCH_DATE":"2020-10-18","TLE_LINE1":"1 46715U 20073AX  21243.88379297  .00003010  00000-0  22110-3 0  9993","TLE_LINE2":"2 46715  53.0544  92.3798 0002087  87.4550 272.6678 15.06369024 48310"},{"CENTER_NAME":"EARTH","OBJECT_ID":"2020-073AY","CLASSIFICATION_TYPE":"U","TIME_SYSTEM":"UTC","MEAN_MOTION_DDOT":"0.0000000000000","SEMIMAJOR_AXIS":"6925.364","MEAN_MOTION":"15.06394944","BSTAR":"0.00002261300000","SITE":"AFETR","REV_AT_EPOCH":"4809","NORAD_CAT_ID":"46716","PERIOD":"95.592","RCS_SIZE":"LARGE","GP_ID":"183841908","APOAPSIS":"548.731","ECCENTRICITY":"0.00021690","ARG_OF_PERICENTER":"81.4110","MEAN_ELEMENT_THEORY":"SGP4","REF_FRAME":"TEME","INCLINATION":"53.0547","MEAN_MOTION_DOT":"0.00000055","MEAN_ANOMALY":"278.7125","FILE":"3106454","COUNTRY_CODE":"US","EPHEMERIS_TYPE":"0","RA_OF_ASC_NODE":"107.6139","ELEMENT_SET_NO":"999","LAUNCH_DATE":"2020-10-18","TLE_LINE1":"1 46716U 20073AY  21243.83264329  .00000055  00000-0  22613-4 0  9993","EPOCH":"2021-08-31T19:59:00.380256","PERIAPSIS":"545.727","TLE_LINE2":"2 46716  53.0547 107.6139 0002169  81.4110 278.7125 15.06394944 48098","OBJECT_NAME":"STARLINK-1818","OBJECT_TYPE":"PAYLOAD","DECAY_DATE":null},{"ECCENTRICITY":"0.00019370","APOAPSIS":"548.620","GP_ID":"183842660","INCLINATION":"53.0547","REF_FRAME":"TEME","ARG_OF_PERICENTER":"79.3880","MEAN_ELEMENT_THEORY":"SGP4","COUNTRY_CODE":"US","FILE":"3106454","MEAN_ANOMALY":"280.7327","MEAN_MOTION_DOT":"-0.00000644","RA_OF_ASC_NODE":"92.5814","EPHEMERIS_TYPE":"0","PERIAPSIS":"545.937","EPOCH":"2021-08-31T20:03:40.279104","TLE_LINE1":"1 46717U 20073AZ  21243.83588286 -.00000644  00000-0 -24363-4 0  9995","ELEMENT_SET_NO":"999","LAUNCH_DATE":"2020-10-18","TLE_LINE2":"2 46717  53.0547  92.5814 0001937  79.3880 280.7327 15.06378774 48307","OBJECT_NAME":"STARLINK-1820","DECAY_DATE":null,"OBJECT_TYPE":"PAYLOAD","OBJECT_ID":"2020-073AZ","CENTER_NAME":"EARTH","CLASSIFICATION_TYPE":"U","MEAN_MOTION":"15.06378774","SEMIMAJOR_AXIS":"6925.414","MEAN_MOTION_DDOT":"0.0000000000000","TIME_SYSTEM":"UTC","BSTAR":"-0.00002436300000","SITE":"AFETR","REV_AT_EPOCH":"4830","PERIOD":"95.593","RCS_SIZE":"LARGE","NORAD_CAT_ID":"46717"},{"CLASSIFICATION_TYPE":"U","OBJECT_ID":"2020-073BA","CENTER_NAME":"EARTH","PERIOD":"95.593","RCS_SIZE":"LARGE","NORAD_CAT_ID":"46718","SITE":"AFETR","REV_AT_EPOCH":"4810","BSTAR":"0.00008409100000","MEAN_MOTION":"15.06391991","SEMIMAJOR_AXIS":"6925.373","MEAN_MOTION_DDOT":"0.0000000000000","TIME_SYSTEM":"UTC","RA_OF_ASC_NODE":"107.4158","EPHEMERIS_TYPE":"0","COUNTRY_CODE":"US","FILE":"3106454","MEAN_MOTION_DOT":"0.00000971","MEAN_ANOMALY":"255.9669","INCLINATION":"53.0561","REF_FRAME":"TEME","ARG_OF_PERICENTER":"104.1567","MEAN_ELEMENT_THEORY":"SGP4","ECCENTRICITY":"0.00022270","APOAPSIS":"548.780","GP_ID":"183842910","DECAY_DATE":null,"OBJECT_TYPE":"PAYLOAD","OBJECT_NAME":"STARLINK-1821","TLE_LINE2":"2 46718  53.0561 107.4158 0002227 104.1567 255.9669 15.06391991 48100","PERIAPSIS":"545.696","EPOCH":"2021-08-31T21:02:42.456192","TLE_LINE1":"1 46718U 20073BA  21243.87688028  .00000971  00000-0  84091-4 0  9990","ELEMENT_SET_NO":"999","LAUNCH_DATE":"2020-10-18"},{"APOAPSIS":"551.562","ECCENTRICITY":"0.00062100","GP_ID":"183841159","REF_FRAME":"TEME","INCLINATION":"53.0555","ARG_OF_PERICENTER":"52.1102","MEAN_ELEMENT_THEORY":"SGP4","FILE":"3106454","COUNTRY_CODE":"US","MEAN_MOTION_DOT":"-0.00000401","MEAN_ANOMALY":"308.0448","RA_OF_ASC_NODE":"72.1738","EPHEMERIS_TYPE":"0","EPOCH":"2021-08-31T22:13:42.918816","PERIAPSIS":"542.961","LAUNCH_DATE":"2020-10-18","ELEMENT_SET_NO":"999","TLE_LINE1":"1 46719U 20073BB  21243.92619119 -.00000401  00000-0 -78981-5 0  9994","TLE_LINE2":"2 46719  53.0555  72.1738 0006210  52.1102 308.0448 15.06384285 48607","OBJECT_NAME":"STARLINK-1822","OBJECT_TYPE":"PAYLOAD","DECAY_DATE":null,"CENTER_NAME":"EARTH","OBJECT_ID":"2020-073BB","CLASSIFICATION_TYPE":"U","SEMIMAJOR_AXIS":"6925.397","MEAN_MOTION":"15.06384285","TIME_SYSTEM":"UTC","MEAN_MOTION_DDOT":"0.0000000000000","BSTAR":"-0.00000789810000","SITE":"AFETR","REV_AT_EPOCH":"4860","PERIOD":"95.593","RCS_SIZE":"LARGE","NORAD_CAT_ID":"46719"},{"EPHEMERIS_TYPE":"0","RA_OF_ASC_NODE":"72.3431","MEAN_ANOMALY":"261.2194","MEAN_MOTION_DOT":"-0.00000250","FILE":"3106454","COUNTRY_CODE":"US","ARG_OF_PERICENTER":"98.9014","MEAN_ELEMENT_THEORY":"SGP4","INCLINATION":"53.0560","REF_FRAME":"TEME","GP_ID":"183841409","ECCENTRICITY":"0.00019350","APOAPSIS":"548.579","DECAY_DATE":null,"OBJECT_TYPE":"PAYLOAD","OBJECT_NAME":"STARLINK-1823","TLE_LINE2":"2 46720  53.0560  72.3431 0001935  98.9014 261.2194 15.06391694 48594","TLE_LINE1":"1 46720U 20073BC  21243.88931575 -.00000250  00000-0  21351-5 0  9994","ELEMENT_SET_NO":"999","LAUNCH_DATE":"2020-10-18","PERIAPSIS":"545.899","EPOCH":"2021-08-31T21:20:36.880800","CLASSIFICATION_TYPE":"U","OBJECT_ID":"2020-073BC","CENTER_NAME":"EARTH","NORAD_CAT_ID":"46720","PERIOD":"95.593","RCS_SIZE":"LARGE","SITE":"AFETR","REV_AT_EPOCH":"4859","BSTAR":"0.00000213510000","MEAN_MOTION_DDOT":"0.0000000000000","TIME_SYSTEM":"UTC","MEAN_MOTION":"15.06391694","SEMIMAJOR_AXIS":"6925.374"},{"NORAD_CAT_ID":"46721","PERIOD":"89.647","RCS_SIZE":"LARGE","REV_AT_EPOCH":"5044","SITE":"AFETR","BSTAR":"0.00000767240000","TIME_SYSTEM":"UTC","MEAN_MOTION_DDOT":"0.0000114680000","SEMIMAJOR_AXIS":"6635.138","MEAN_MOTION":"16.06304255","CLASSIFICATION_TYPE":"U","CENTER_NAME":"EARTH","OBJECT_ID":"2020-073BD","OBJECT_TYPE":"PAYLOAD","DECAY_DATE":null,"OBJECT_NAME":"STARLINK-1824","TLE_LINE2":"2 46721  53.0031 295.7258 0006799 279.2547  80.7715 16.06304255 50442","LAUNCH_DATE":"2020-10-18","ELEMENT_SET_NO":"999","TLE_LINE1":"1 46721U 20073BD  21243.55739454  .00002285  11468-4  76724-5 0  9998","EPOCH":"2021-08-31T13:22:38.888256","PERIAPSIS":"252.492","EPHEMERIS_TYPE":"0","RA_OF_ASC_NODE":"295.7258","MEAN_ANOMALY":"80.7715","MEAN_MOTION_DOT":"0.00002285","FILE":"3106454","COUNTRY_CODE":"US","ARG_OF_PERICENTER":"279.2547","MEAN_ELEMENT_THEORY":"SGP4","REF_FRAME":"TEME","INCLINATION":"53.0031","GP_ID":"183842161","APOAPSIS":"261.514","ECCENTRICITY":"0.00067990"},{"RA_OF_ASC_NODE":"107.5797","EPHEMERIS_TYPE":"0","COUNTRY_CODE":"US","FILE":"3106454","MEAN_ANOMALY":"268.7700","MEAN_MOTION_DOT":"-0.00000808","INCLINATION":"53.0547","REF_FRAME":"TEME","MEAN_ELEMENT_THEORY":"SGP4","ARG_OF_PERICENTER":"91.3495","ECCENTRICITY":"0.00017930","APOAPSIS":"548.443","GP_ID":"183842411","DECAY_DATE":null,"OBJECT_TYPE":"PAYLOAD","OBJECT_NAME":"STARLINK-1825","TLE_LINE2":"2 46722  53.0547 107.5797 0001793  91.3495 268.7700 15.06403853 48090","PERIAPSIS":"545.960","EPOCH":"2021-08-31T20:04:18.355584","TLE_LINE1":"1 46722U 20073BE  21243.83632356 -.00000808  00000-0 -35340-4 0  9998","ELEMENT_SET_NO":"999","LAUNCH_DATE":"2020-10-18","CLASSIFICATION_TYPE":"U","OBJECT_ID":"2020-073BE","CENTER_NAME":"EARTH","PERIOD":"95.592","RCS_SIZE":"LARGE","NORAD_CAT_ID":"46722","REV_AT_EPOCH":"4809","SITE":"AFETR","BSTAR":"-0.00003534000000","MEAN_MOTION":"15.06403853","SEMIMAJOR_AXIS":"6925.337","MEAN_MOTION_DDOT":"0.0000000000000","TIME_SYSTEM":"UTC"}];
